{
  "type": "FeatureCollection",
  "features": [
    {
      "type": "Feature",
      "properties": {
        "norad_id": 31327,
        "name": "FENGYUN 1C DEB",
        "group": "fengyun-1c-debris",
        "lat": 31.200486327337845,
        "lon": -8.036952097384933,
        "alt_km": 490.5338733992903,
        "timestamp": "2025-12-20T16:47:36.568378+00:00",
        "meta_object_name": "FENGYUN 1C DEB",
        "meta_object_id": "1999-025BQF",
        "meta_epoch": "2025-12-20T05:31:58.833120",
        "meta_mean_motion": 15.11282941,
        "meta_eccentricity": 0.0085712,
        "meta_inclination": 98.9858,
        "meta_ra_of_asc_node": 356.9117,
        "meta_arg_of_pericenter": 345.3944,
        "meta_mean_anomaly": 14.4806,
        "meta_ephemeris_type": 0,
        "meta_classification_type": "U",
        "meta_norad_cat_id": 31327,
        "meta_element_set_no": 999,
        "meta_rev_at_epoch": 212,
        "meta_bstar": 0.0010939,
        "meta_mean_motion_dot": 0.00020067,
        "meta_mean_motion_ddot": 0,
        "tle_line1": "1 31327U 99025BQF 25354.23054205  .00020067  00000+0  10939-2 0  9999",
        "tle_line2": "2 31327  98.9858 356.9117 0085712 345.3944  14.4806 15.11282941  2124"
      },
      "geometry": {
        "type": "Point",
        "coordinates": [
          -8.036952097384933,
          31.200486327337845
        ]
      }
    },
    {
      "type": "Feature",
      "properties": {
        "norad_id": 31328,
        "name": "FENGYUN 1C DEB",
        "group": "fengyun-1c-debris",
        "lat": 5.153820893704456,
        "lon": -32.51871997914538,
        "alt_km": 871.4081372382652,
        "timestamp": "2025-12-20T16:47:36.568388+00:00",
        "meta_object_name": "FENGYUN 1C DEB",
        "meta_object_id": "1999-025BQG",
        "meta_epoch": "2025-12-19T15:33:38.140704",
        "meta_mean_motion": 14.28947563,
        "meta_eccentricity": 0.0103955,
        "meta_inclination": 98.4838,
        "meta_ra_of_asc_node": 327.2296,
        "meta_arg_of_pericenter": 195.9959,
        "meta_mean_anomaly": 163.7933,
        "meta_ephemeris_type": 0,
        "meta_classification_type": "U",
        "meta_norad_cat_id": 31328,
        "meta_element_set_no": 999,
        "meta_rev_at_epoch": 97561,
        "meta_bstar": 5.1829084e-05,
        "meta_mean_motion_dot": 9.6e-07,
        "meta_mean_motion_ddot": 0,
        "tle_line1": "1 31328U 99025BQG 25353.64835811  .00000096  00000+0  51829-4 0  9999",
        "tle_line2": "2 31328  98.4838 327.2296 0103955 195.9959 163.7933 14.28947563975619"
      },
      "geometry": {
        "type": "Point",
        "coordinates": [
          -32.51871997914538,
          5.153820893704456
        ]
      }
    },
    {
      "type": "Feature",
      "properties": {
        "norad_id": 31330,
        "name": "FENGYUN 1C DEB",
        "group": "fengyun-1c-debris",
        "lat": -20.32646851063231,
        "lon": 163.74855954864634,
        "alt_km": 533.4678260922265,
        "timestamp": "2025-12-20T16:47:36.568399+00:00",
        "meta_object_name": "FENGYUN 1C DEB",
        "meta_object_id": "1999-025BQJ",
        "meta_epoch": "2025-12-19T04:36:56.814336",
        "meta_mean_motion": 15.12538328,
        "meta_eccentricity": 0.0002465,
        "meta_inclination": 98.8824,
        "meta_ra_of_asc_node": 158.6746,
        "meta_arg_of_pericenter": 224.8648,
        "meta_mean_anomaly": 190.6653,
        "meta_ephemeris_type": 0,
        "meta_classification_type": "U",
        "meta_norad_cat_id": 31330,
        "meta_element_set_no": 999,
        "meta_rev_at_epoch": 97227,
        "meta_bstar": 0.0067077,
        "meta_mean_motion_dot": 0.00118709,
        "meta_mean_motion_ddot": 0,
        "tle_line1": "1 31330U 99025BQJ 25353.19232424  .00118709  00000+0  67077-2 0  9994",
        "tle_line2": "2 31330  98.8824 158.6746 0002465 224.8648 190.6653 15.12538328972274"
      },
      "geometry": {
        "type": "Point",
        "coordinates": [
          163.74855954864634,
          -20.32646851063231
        ]
      }
    },
    {
      "type": "Feature",
      "properties": {
        "norad_id": 31331,
        "name": "FENGYUN 1C DEB",
        "group": "fengyun-1c-debris",
        "lat": -72.7056054744338,
        "lon": 170.1882013292037,
        "alt_km": 901.8086816147716,
        "timestamp": "2025-12-20T16:47:36.568408+00:00",
        "meta_object_name": "FENGYUN 1C DEB",
        "meta_object_id": "1999-025BQK",
        "meta_epoch": "2025-12-19T07:00:29.877408",
        "meta_mean_motion": 14.00628517,
        "meta_eccentricity": 0.0053435,
        "meta_inclination": 98.8725,
        "meta_ra_of_asc_node": 18.9328,
        "meta_arg_of_pericenter": 164.3513,
        "meta_mean_anomaly": 195.9319,
        "meta_ephemeris_type": 0,
        "meta_classification_type": "U",
        "meta_norad_cat_id": 31331,
        "meta_element_set_no": 999,
        "meta_rev_at_epoch": 63948,
        "meta_bstar": 0.00038925,
        "meta_mean_motion_dot": 5.44e-06,
        "meta_mean_motion_ddot": 0,
        "tle_line1": "1 31331U 99025BQK 25353.29201247  .00000544  00000+0  38925-3 0  9993",
        "tle_line2": "2 31331  98.8725  18.9328 0053435 164.3513 195.9319 14.00628517639487"
      },
      "geometry": {
        "type": "Point",
        "coordinates": [
          170.1882013292037,
          -72.7056054744338
        ]
      }
    },
    {
      "type": "Feature",
      "properties": {
        "norad_id": 31332,
        "name": "FENGYUN 1C DEB",
        "group": "fengyun-1c-debris",
        "lat": 33.6938499311241,
        "lon": -1.0623423839383144,
        "alt_km": 820.2234824904635,
        "timestamp": "2025-12-20T16:47:36.568419+00:00",
        "meta_object_name": "FENGYUN 1C DEB",
        "meta_object_id": "1999-025BQL",
        "meta_epoch": "2025-12-20T12:14:48.155712",
        "meta_mean_motion": 14.11866543,
        "meta_eccentricity": 0.0049647,
        "meta_inclination": 98.7046,
        "meta_ra_of_asc_node": 4.6167,
        "meta_arg_of_pericenter": 3.0242,
        "meta_mean_anomaly": 148.531,
        "meta_ephemeris_type": 0,
        "meta_classification_type": "U",
        "meta_norad_cat_id": 31332,
        "meta_element_set_no": 999,
        "meta_rev_at_epoch": 96081,
        "meta_bstar": 0.00066916,
        "meta_mean_motion_dot": 1.193e-05,
        "meta_mean_motion_ddot": 0,
        "tle_line1": "1 31332U 99025BQL 25354.51027958  .00001193  00000+0  66916-3 0  9997",
        "tle_line2": "2 31332  98.7046   4.6167 0049647   3.0242 148.5310 14.11866543960818"
      },
      "geometry": {
        "type": "Point",
        "coordinates": [
          -1.0623423839383144,
          33.6938499311241
        ]
      }
    },
    {
      "type": "Feature",
      "properties": {
        "norad_id": 31333,
        "name": "FENGYUN 1C DEB",
        "group": "fengyun-1c-debris",
        "lat": -51.02761500975719,
        "lon": 19.539573847389576,
        "alt_km": 769.0562221520186,
        "timestamp": "2025-12-20T16:47:36.568429+00:00",
        "meta_object_name": "FENGYUN 1C DEB",
        "meta_object_id": "1999-025BQM",
        "meta_epoch": "2025-12-20T06:55:55.491744",
        "meta_mean_motion": 14.26565654,
        "meta_eccentricity": 0.0098308,
        "meta_inclination": 98.4278,
        "meta_ra_of_asc_node": 8.584,
        "meta_arg_of_pericenter": 4.3666,
        "meta_mean_anomaly": 355.8351,
        "meta_ephemeris_type": 0,
        "meta_classification_type": "U",
        "meta_norad_cat_id": 31333,
        "meta_element_set_no": 999,
        "meta_rev_at_epoch": 96699,
        "meta_bstar": 0.00051297,
        "meta_mean_motion_dot": 1.26e-05,
        "meta_mean_motion_ddot": 0,
        "tle_line1": "1 31333U 99025BQM 25354.28883671  .00001260  00000+0  51297-3 0  9995",
        "tle_line2": "2 31333  98.4278   8.5840 0098308   4.3666 355.8351 14.26565654966994"
      },
      "geometry": {
        "type": "Point",
        "coordinates": [
          19.539573847389576,
          -51.02761500975719
        ]
      }
    },
    {
      "type": "Feature",
      "properties": {
        "norad_id": 31336,
        "name": "FENGYUN 1C DEB",
        "group": "fengyun-1c-debris",
        "lat": 41.91457110529925,
        "lon": 42.137260667421536,
        "alt_km": 717.9983001130349,
        "timestamp": "2025-12-20T16:47:36.568439+00:00",
        "meta_object_name": "FENGYUN 1C DEB",
        "meta_object_id": "1999-025BQQ",
        "meta_epoch": "2025-12-18T15:13:35.855328",
        "meta_mean_motion": 14.38712461,
        "meta_eccentricity": 0.00940232,
        "meta_inclination": 98.464,
        "meta_ra_of_asc_node": 47.7822,
        "meta_arg_of_pericenter": 101.1879,
        "meta_mean_anomaly": 51.5253,
        "meta_ephemeris_type": 0,
        "meta_classification_type": "U",
        "meta_norad_cat_id": 31336,
        "meta_element_set_no": 999,
        "meta_rev_at_epoch": 97875,
        "meta_bstar": 0.00023471266,
        "meta_mean_motion_dot": 7.14e-06,
        "meta_mean_motion_ddot": 0,
        "tle_line1": "1 31336U 99025BQQ 25352.63444277  .00000714  00000+0  23471-3 0  9996",
        "tle_line2": "2 31336  98.4640  47.7822 0094023 101.1879  51.5253 14.38712461978758"
      },
      "geometry": {
        "type": "Point",
        "coordinates": [
          42.137260667421536,
          41.91457110529925
        ]
      }
    }
  ]
}